[
    {
        "Altitude(m)": 560079.8671810769,
        "Argument of Periapsis(deg)": 0.019868973332140504,
        "Eccentricity": 0.0,
        "Inclination(deg)": 53.0,
        "Latitude(deg)": -23.50347557807612,
        "Longitude(deg)": -161.40146354343335,
        "Mean Anomaly(deg)": -29.725121397267213,
        "RAAN(deg)": 319.97043010558406,
        "Satellite Name": "Starlink Shell 1 1426",
        "Satellite Number": 1426,
        "Semi-Major Axis(m)": 6931778.249405717,
        "Time(s)": 570
    },
    {
        "Altitude(m)": 559913.7459090863,
        "Argument of Periapsis(deg)": 0.02021755181165174,
        "Eccentricity": 0.0,
        "Inclination(deg)": 53.0,
        "Latitude(deg)": -23.027770708655087,
        "Longitude(deg)": -160.99753970926207,
        "Mean Anomaly(deg)": -29.098290193710515,
        "RAAN(deg)": 319.96991133550654,
        "Satellite Name": "Starlink Shell 1 1426",
        "Satellite Number": 1426,
        "Semi-Major Axis(m)": 6931778.249405717,
        "Time(s)": 580
    },
    {
        "Altitude(m)": 559748.7311058996,
        "Argument of Periapsis(deg)": 0.020566130291162974,
        "Eccentricity": 0.0,
        "Inclination(deg)": 53.0,
        "Latitude(deg)": -22.550779130026893,
        "Longitude(deg)": -160.59671725040954,
        "Mean Anomaly(deg)": -28.471458990153767,
        "RAAN(deg)": 319.96939256542913,
        "Satellite Name": "Starlink Shell 1 1426",
        "Satellite Number": 1426,
        "Semi-Major Axis(m)": 6931778.249405717,
        "Time(s)": 590
    },
    {
        "Altitude(m)": 559584.8815294891,
        "Argument of Periapsis(deg)": 0.020914708770674213,
        "Eccentricity": 0.0,
        "Inclination(deg)": 53.0,
        "Latitude(deg)": -22.07253804031532,
        "Longitude(deg)": -160.19891160666842,
        "Mean Anomaly(deg)": -27.844627786597023,
        "RAAN(deg)": 319.96887379535167,
        "Satellite Name": "Starlink Shell 1 1426",
        "Satellite Number": 1426,
        "Semi-Major Axis(m)": 6931778.249405717,
        "Time(s)": 600
    },
    {
        "Altitude(m)": 559422.2552695485,
        "Argument of Periapsis(deg)": 0.021263287250185448,
        "Eccentricity": 0.0,
        "Inclination(deg)": 53.0,
        "Latitude(deg)": -21.593083930090312,
        "Longitude(deg)": -159.8040393751661,
        "Mean Anomaly(deg)": -27.217796583040325,
        "RAAN(deg)": 319.96835502527415,
        "Satellite Name": "Starlink Shell 1 1426",
        "Satellite Number": 1426,
        "Semi-Major Axis(m)": 6931778.249405717,
        "Time(s)": 610
    },
    {
        "Altitude(m)": 559260.9097215317,
        "Argument of Periapsis(deg)": 0.021611865729696686,
        "Eccentricity": 0.0,
        "Inclination(deg)": 53.0,
        "Latitude(deg)": -21.112452605735367,
        "Longitude(deg)": -159.41201778494795,
        "Mean Anomaly(deg)": -26.590965379483634,
        "RAAN(deg)": 319.9678362551967,
        "Satellite Name": "Starlink Shell 1 1426",
        "Satellite Number": 1426,
        "Semi-Major Axis(m)": 6931778.249405717,
        "Time(s)": 620
    },
    {
        "Altitude(m)": 559100.9015609917,
        "Argument of Periapsis(deg)": 0.02196044420920792,
        "Eccentricity": 0.0,
        "Inclination(deg)": 53.0,
        "Latitude(deg)": -20.630679212310344,
        "Longitude(deg)": -159.0227658516993,
        "Mean Anomaly(deg)": -25.964134175926937,
        "RAAN(deg)": 319.9673174851192,
        "Satellite Name": "Starlink Shell 1 1426",
        "Satellite Number": 1426,
        "Semi-Major Axis(m)": 6931778.249405717,
        "Time(s)": 630
    },
    {
        "Altitude(m)": 558942.2867183086,
        "Argument of Periapsis(deg)": 0.02230902268871916,
        "Eccentricity": 0.0,
        "Inclination(deg)": 53.0,
        "Latitude(deg)": -20.14779825592274,
        "Longitude(deg)": -158.6362030102711,
        "Mean Anomaly(deg)": -25.33730297237014,
        "RAAN(deg)": 319.96679871504176,
        "Satellite Name": "Starlink Shell 1 1426",
        "Satellite Number": 1426,
        "Semi-Major Axis(m)": 6931778.249405717,
        "Time(s)": 640
    },
    {
        "Altitude(m)": 558785.1203537403,
        "Argument of Periapsis(deg)": 0.022657601168230398,
        "Eccentricity": 0.0,
        "Inclination(deg)": 53.0,
        "Latitude(deg)": -19.663843625607647,
        "Longitude(deg)": -158.25225026800794,
        "Mean Anomaly(deg)": -24.710471768813544,
        "RAAN(deg)": 319.9662799449643,
        "Satellite Name": "Starlink Shell 1 1426",
        "Satellite Number": 1426,
        "Semi-Major Axis(m)": 6931778.249405717,
        "Time(s)": 650
    },
    {
        "Altitude(m)": 558629.4568328393,
        "Argument of Periapsis(deg)": 0.023006179647741636,
        "Eccentricity": 0.0,
        "Inclination(deg)": 53.0,
        "Latitude(deg)": -19.178848614730317,
        "Longitude(deg)": -157.87082967652833,
        "Mean Anomaly(deg)": -24.08364056525685,
        "RAAN(deg)": 319.9657611748868,
        "Satellite Name": "Starlink Shell 1 1426",
        "Satellite Number": 1426,
        "Semi-Major Axis(m)": 6931778.249405717,
        "Time(s)": 660
    },
    {
        "Altitude(m)": 558475.3497022697,
        "Argument of Periapsis(deg)": 0.023354758127252868,
        "Eccentricity": 0.0,
        "Inclination(deg)": 53.0,
        "Latitude(deg)": -18.692845941919273,
        "Longitude(deg)": -157.49186380300196,
        "Mean Anomaly(deg)": -23.4568093617,
        "RAAN(deg)": 319.9652424048093,
        "Satellite Name": "Starlink Shell 1 1426",
        "Satellite Number": 1426,
        "Semi-Major Axis(m)": 6931778.249405717,
        "Time(s)": 670
    },
    {
        "Altitude(m)": 558322.8516660117,
        "Argument of Periapsis(deg)": 0.023703336606764106,
        "Eccentricity": 0.0,
        "Inclination(deg)": 53.0,
        "Latitude(deg)": -18.205867771536333,
        "Longitude(deg)": -157.11527671386224,
        "Mean Anomaly(deg)": -22.829978158143355,
        "RAAN(deg)": 319.96472363473185,
        "Satellite Name": "Starlink Shell 1 1426",
        "Satellite Number": 1426,
        "Semi-Major Axis(m)": 6931778.249405717,
        "Time(s)": 680
    },
    {
        "Altitude(m)": 558172.0145619636,
        "Argument of Periapsis(deg)": 0.024051915086275345,
        "Eccentricity": 0.0,
        "Inclination(deg)": 53.0,
        "Latitude(deg)": -17.717945733697157,
        "Longitude(deg)": -156.7409934452671,
        "Mean Anomaly(deg)": -22.20314695458666,
        "RAAN(deg)": 319.9642048646544,
        "Satellite Name": "Starlink Shell 1 1426",
        "Satellite Number": 1426,
        "Semi-Major Axis(m)": 6931778.249405717,
        "Time(s)": 690
    },
    {
        "Altitude(m)": 558022.8893389584,
        "Argument of Periapsis(deg)": 0.024400493565786583,
        "Eccentricity": 0.0,
        "Inclination(deg)": 53.0,
        "Latitude(deg)": -17.229110943853847,
        "Longitude(deg)": -156.3689394732376,
        "Mean Anomaly(deg)": -21.576315751029913,
        "RAAN(deg)": 319.9636860945769,
        "Satellite Name": "Starlink Shell 1 1426",
        "Satellite Number": 1426,
        "Semi-Major Axis(m)": 6931778.249405717,
        "Time(s)": 700
    },
    {
        "Altitude(m)": 557875.5260342382,
        "Argument of Periapsis(deg)": 0.024749072045297815,
        "Eccentricity": 0.0,
        "Inclination(deg)": 53.0,
        "Latitude(deg)": -16.739394021944744,
        "Longitude(deg)": -155.99904169639865,
        "Mean Anomaly(deg)": -20.949484547473165,
        "RAAN(deg)": 319.9631673244994,
        "Satellite Name": "Starlink Shell 1 1426",
        "Satellite Number": 1426,
        "Semi-Major Axis(m)": 6931778.249405717,
        "Time(s)": 710
    },
    {
        "Altitude(m)": 557729.9737513346,
        "Argument of Periapsis(deg)": 0.025097650524809053,
        "Eccentricity": 0.0,
        "Inclination(deg)": 53.0,
        "Latitude(deg)": -16.24882511112912,
        "Longitude(deg)": -155.631227905618,
        "Mean Anomaly(deg)": -20.322653343916524,
        "RAAN(deg)": 319.962648554422,
        "Satellite Name": "Starlink Shell 1 1426",
        "Satellite Number": 1426,
        "Semi-Major Axis(m)": 6931778.249405717,
        "Time(s)": 720
    },
    {
        "Altitude(m)": 557586.2806384347,
        "Argument of Periapsis(deg)": 0.02544622900432029,
        "Eccentricity": 0.0,
        "Inclination(deg)": 53.0,
        "Latitude(deg)": -15.757433896115806,
        "Longitude(deg)": -155.2654262534607,
        "Mean Anomaly(deg)": -19.695822140359827,
        "RAAN(deg)": 319.9621297843445,
        "Satellite Name": "Starlink Shell 1 1426",
        "Satellite Number": 1426,
        "Semi-Major Axis(m)": 6931778.249405717,
        "Time(s)": 730
    },
    {
        "Altitude(m)": 557444.4938671773,
        "Argument of Periapsis(deg)": 0.02579480748383153,
        "Eccentricity": 0.0,
        "Inclination(deg)": 53.0,
        "Latitude(deg)": -15.265249621094657,
        "Longitude(deg)": -154.90156623636864,
        "Mean Anomaly(deg)": -19.06899093680308,
        "RAAN(deg)": 319.961611014267,
        "Satellite Name": "Starlink Shell 1 1426",
        "Satellite Number": 1426,
        "Semi-Major Axis(m)": 6931778.249405717,
        "Time(s)": 740
    },
    {
        "Altitude(m)": 557304.6596119631,
        "Argument of Periapsis(deg)": 0.026143385963342765,
        "Eccentricity": 0.0,
        "Inclination(deg)": 53.0,
        "Latitude(deg)": -14.772301107287976,
        "Longitude(deg)": -154.53957816385252,
        "Mean Anomaly(deg)": -18.442159733246335,
        "RAAN(deg)": 319.96109224418956,
        "Satellite Name": "Starlink Shell 1 1426",
        "Satellite Number": 1426,
        "Semi-Major Axis(m)": 6931778.249405717,
        "Time(s)": 750
    }
]